{
  "type": "FeatureCollection",
  "features": [
    {
      "type": "Feature",
      "properties": {
        "norad_id": 49336,
        "name": "QZS-1R (QZSS/PRN 196)",
        "group": "gnss",
        "lat": -1.6389390876469077,
        "lon": 80.26275007554557,
        "alt_km": 35341.18679417804,
        "timestamp": "2025-12-05T14:45:15.544783+00:00",
        "meta_object_name": "QZS-1R (QZSS/PRN 196)",
        "meta_object_id": "2021-096A",
        "meta_epoch": "2025-12-01T04:08:48.475392",
        "meta_mean_motion": 1.0026089,
        "meta_eccentricity": 0.0753298,
        "meta_inclination": 37.0524,
        "meta_ra_of_asc_node": 82.5332,
        "meta_arg_of_pericenter": 271.0716,
        "meta_mean_anomaly": 274.2635,
        "meta_ephemeris_type": 0,
        "meta_classification_type": "U",
        "meta_norad_cat_id": 49336,
        "meta_element_set_no": 999,
        "meta_rev_at_epoch": 1502,
        "meta_bstar": 0,
        "meta_mean_motion_dot": -2.17e-06,
        "meta_mean_motion_ddot": 0,
        "tle_line1": "1 49336U 21096A   25335.17278328 -.00000217  00000+0  00000+0 0  9998",
        "tle_line2": "2 49336  37.0524  82.5332 0753298 271.0716 274.2635  1.00260890 15022"
      },
      "geometry": {
        "type": "Point",
        "coordinates": [
          80.26275007554557,
          -1.6389390876469077
        ]
      }
    },
    {
      "type": "Feature",
      "properties": {
        "norad_id": 49809,
        "name": "GSAT0223 (GALILEO 27)",
        "group": "gnss",
        "lat": 46.56232700808057,
        "lon": 124.01351091247244,
        "alt_km": 23225.45994534457,
        "timestamp": "2025-12-05T14:45:15.544794+00:00",
        "meta_object_name": "GSAT0223 (GALILEO 27)",
        "meta_object_id": "2021-116A",
        "meta_epoch": "2025-12-03T22:51:48.276576",
        "meta_mean_motion": 1.70475481,
        "meta_eccentricity": 0.00047656,
        "meta_inclination": 57.2213,
        "meta_ra_of_asc_node": 346.9508,
        "meta_arg_of_pericenter": 249.4566,
        "meta_mean_anomaly": 290.7436,
        "meta_ephemeris_type": 0,
        "meta_classification_type": "U",
        "meta_norad_cat_id": 49809,
        "meta_element_set_no": 999,
        "meta_rev_at_epoch": 2485,
        "meta_bstar": 0,
        "meta_mean_motion_dot": -6.9e-07,
        "meta_mean_motion_ddot": 0,
        "tle_line1": "1 49809U 21116A   25337.95264209 -.00000069  00000+0  00000+0 0  9992",
        "tle_line2": "2 49809  57.2213 346.9508 0004765 249.4566 290.7436  1.70475481 24852"
      },
      "geometry": {
        "type": "Point",
        "coordinates": [
          124.01351091247244,
          46.56232700808057
        ]
      }
    },
    {
      "type": "Feature",
      "properties": {
        "norad_id": 49810,
        "name": "GSAT0224 (GALILEO 28)",
        "group": "gnss",
        "lat": -42.076816681530026,
        "lon": -157.51129728210447,
        "alt_km": 23215.405474104635,
        "timestamp": "2025-12-05T14:45:15.544806+00:00",
        "meta_object_name": "GSAT0224 (GALILEO 28)",
        "meta_object_id": "2021-116B",
        "meta_epoch": "2025-12-04T08:26:39.031296",
        "meta_mean_motion": 1.70475489,
        "meta_eccentricity": 0.0004089,
        "meta_inclination": 57.2221,
        "meta_ra_of_asc_node": 346.9386,
        "meta_arg_of_pericenter": 249.8776,
        "meta_mean_anomaly": 287.9091,
        "meta_ephemeris_type": 0,
        "meta_classification_type": "U",
        "meta_norad_cat_id": 49810,
        "meta_element_set_no": 999,
        "meta_rev_at_epoch": 2488,
        "meta_bstar": 0,
        "meta_mean_motion_dot": -7.1e-07,
        "meta_mean_motion_ddot": 0,
        "tle_line1": "1 49810U 21116B   25338.35184064 -.00000071  00000+0  00000+0 0  9992",
        "tle_line2": "2 49810  57.2221 346.9386 0004089 249.8776 287.9091  1.70475489 24889"
      },
      "geometry": {
        "type": "Point",
        "coordinates": [
          -157.51129728210447,
          -42.076816681530026
        ]
      }
    },
    {
      "type": "Feature",
      "properties": {
        "norad_id": 52984,
        "name": "COSMOS 2557 (706K)",
        "group": "gnss",
        "lat": -49.91428138196089,
        "lon": 175.99131485258695,
        "alt_km": 19108.258367007704,
        "timestamp": "2025-12-05T14:45:15.544818+00:00",
        "meta_object_name": "COSMOS 2557 (706K)",
        "meta_object_id": "2022-075A",
        "meta_epoch": "2025-12-04T08:46:35.993568",
        "meta_mean_motion": 2.13101723,
        "meta_eccentricity": 0.0013727,
        "meta_inclination": 64.4144,
        "meta_ra_of_asc_node": 321.3461,
        "meta_arg_of_pericenter": 276.6628,
        "meta_mean_anomaly": 83.1807,
        "meta_ephemeris_type": 0,
        "meta_classification_type": "U",
        "meta_norad_cat_id": 52984,
        "meta_element_set_no": 999,
        "meta_rev_at_epoch": 2656,
        "meta_bstar": 0,
        "meta_mean_motion_dot": -4.7e-07,
        "meta_mean_motion_ddot": 0,
        "tle_line1": "1 52984U 22075A   25338.36569437 -.00000047  00000+0  00000+0 0  9998",
        "tle_line2": "2 52984  64.4144 321.3461 0013727 276.6628  83.1807  2.13101723 26566"
      },
      "geometry": {
        "type": "Point",
        "coordinates": [
          175.99131485258695,
          -49.91428138196089
        ]
      }
    },
    {
      "type": "Feature",
      "properties": {
        "norad_id": 54031,
        "name": "COSMOS 2559 (707K)",
        "group": "gnss",
        "lat": 15.230890968570824,
        "lon": -31.11421134580908,
        "alt_km": 19159.003950905957,
        "timestamp": "2025-12-05T14:45:15.544841+00:00",
        "meta_object_name": "COSMOS 2559 (707K)",
        "meta_object_id": "2022-130A",
        "meta_epoch": "2025-12-03T17:10:26.893920",
        "meta_mean_motion": 2.13101235,
        "meta_eccentricity": 0.00120262,
        "meta_inclination": 64.3873,
        "meta_ra_of_asc_node": 321.4588,
        "meta_arg_of_pericenter": 192.7508,
        "meta_mean_anomaly": 167.2215,
        "meta_ephemeris_type": 0,
        "meta_classification_type": "U",
        "meta_norad_cat_id": 54031,
        "meta_element_set_no": 999,
        "meta_rev_at_epoch": 2452,
        "meta_bstar": 0,
        "meta_mean_motion_dot": -4.4e-07,
        "meta_mean_motion_ddot": 0,
        "tle_line1": "1 54031U 22130A   25337.71558905 -.00000044  00000+0  00000+0 0  9998",
        "tle_line2": "2 54031  64.3873 321.4588 0012026 192.7508 167.2215  2.13101235 24525"
      },
      "geometry": {
        "type": "Point",
        "coordinates": [
          -31.11421134580908,
          15.230890968570824
        ]
      }
    },
    {
      "type": "Feature",
      "properties": {
        "norad_id": 54377,
        "name": "COSMOS 2564 (761)",
        "group": "gnss",
        "lat": 38.61210965911996,
        "lon": -3.014178896015323,
        "alt_km": 19117.807042512843,
        "timestamp": "2025-12-05T14:45:15.544855+00:00",
        "meta_object_name": "COSMOS 2564 (761)",
        "meta_object_id": "2022-161A",
        "meta_epoch": "2025-12-03T13:26:12.799104",
        "meta_mean_motion": 2.13101952,
        "meta_eccentricity": 0.00087056,
        "meta_inclination": 64.7377,
        "meta_ra_of_asc_node": 199.204,
        "meta_arg_of_pericenter": 206.235,
        "meta_mean_anomaly": 153.818,
        "meta_ephemeris_type": 0,
        "meta_classification_type": "U",
        "meta_norad_cat_id": 54377,
        "meta_element_set_no": 999,
        "meta_rev_at_epoch": 2346,
        "meta_bstar": 0,
        "meta_mean_motion_dot": 1.05e-06,
        "meta_mean_motion_ddot": 0,
        "tle_line1": "1 54377U 22161A   25337.55987036  .00000105  00000+0  00000+0 0  9995",
        "tle_line2": "2 54377  64.7377 199.2040 0008705 206.2350 153.8180  2.13101952 23460"
      },
      "geometry": {
        "type": "Point",
        "coordinates": [
          -3.014178896015323,
          38.61210965911996
        ]
      }
    },
    {
      "type": "Feature",
      "properties": {
        "norad_id": 55268,
        "name": "GPS BIII-6  (PRN 28)",
        "group": "gnss",
        "lat": 53.54602183874077,
        "lon": -132.91962021370043,
        "alt_km": 20174.95005345789,
        "timestamp": "2025-12-05T14:45:15.544867+00:00",
        "meta_object_name": "GPS BIII-6  (PRN 28)",
        "meta_object_id": "2023-009A",
        "meta_epoch": "2025-12-03T18:12:38.807136",
        "meta_mean_motion": 2.00556312,
        "meta_eccentricity": 0.00036355,
        "meta_inclination": 55.1062,
        "meta_ra_of_asc_node": 156.1984,
        "meta_arg_of_pericenter": 358.5946,
        "meta_mean_anomaly": 180.1179,
        "meta_ephemeris_type": 0,
        "meta_classification_type": "U",
        "meta_norad_cat_id": 55268,
        "meta_element_set_no": 999,
        "meta_rev_at_epoch": 2132,
        "meta_bstar": 0,
        "meta_mean_motion_dot": 9.9e-07,
        "meta_mean_motion_ddot": 0,
        "tle_line1": "1 55268U 23009A   25337.75878249  .00000099  00000+0  00000+0 0  9996",
        "tle_line2": "2 55268  55.1062 156.1984 0003635 358.5946 180.1179  2.00556312 21327"
      },
      "geometry": {
        "type": "Point",
        "coordinates": [
          -132.91962021370043,
          53.54602183874077
        ]
      }
    }
  ]
}